{"type": "FeatureCollection", "features": [ {"type": "Feature", "properties": {"norad_id": 17070, "name": "POLAR BEAR", "group": "nnss", "lat": -19.17196985070125, "lon": -176.6597772931361, "alt_km": 999.4363562612234, "timestamp": "2025-12-20T05:41:50.299010+00:00", "meta": {"OBJECT_NAME": "POLAR BEAR", "OBJECT_ID": "1986-088A", "EPOCH": "2025-12-19T23:22:08.257152", "MEAN_MOTION": 13.75252266, "ECCENTRICITY": 0.00412623, "INCLINATION": 89.617, "RA_OF_ASC_NODE": 183.4841, "ARG_OF_PERICENTER": 98.4165, "MEAN_ANOMALY": 18.2828, "EPHEMERIS_TYPE": 0, "CLASSIFICATION_TYPE": "U", "NORAD_CAT_ID": 17070, "ELEMENT_SET_NO": 999, "REV_AT_EPOCH": 96078, "BSTAR": 9.4820669e-05, "MEAN_MOTION_DOT": 1.03e-06, "MEAN_MOTION_DDOT": 0}, "tle": {"line1": "1 17070U 86088A   25353.97370668  .00000103  00000+0  94821-4 0  9990", "line2": "2 17070  89.6170 183.4841 0041262  98.4165  18.2828 13.75252266960783"}}, "geometry": {"type": "Point", "coordinates": [-176.6597772931361, -19.17196985070125]}}, {"type": "Feature", "properties": {"norad_id": 18361, "name": "OSCAR 27", "group": "nnss", "lat": 40.04423449368989, "lon": -100.13258358497572, "alt_km": 1051.4199607666878, "timestamp": "2025-12-20T05:41:50.299020+00:00", "meta": {"OBJECT_NAME": "OSCAR 27", "OBJECT_ID": "1987-080A", "EPOCH": "2025-12-19T12:55:35.147136", "MEAN_MOTION": 13.44908026, "ECCENTRICITY": 0.010346, "INCLINATION": 90.3741, "RA_OF_ASC_NODE": 79.5267, "ARG_OF_PERICENTER": 204.1781, "MEAN_ANOMALY": 155.4493, "EPHEMERIS_TYPE": 0, "CLASSIFICATION_TYPE": "U", "NORAD_CAT_ID": 18361, "ELEMENT_SET_NO": 999, "REV_AT_EPOCH": 87648, "BSTAR": 0.00015116, "MEAN_MOTION_DOT": 1e-06, "MEAN_MOTION_DDOT": 0}, "tle": {"line1": "1 18361U 87080A   25353.53860124  .00000100  00000+0  15116-3 0  9996", "line2": "2 18361  90.3741  79.5267 0103460 204.1781 155.4493 13.44908026876489"}}, "geometry": {"type": "Point", "coordinates": [-100.13258358497572, 40.04423449368989]}}, {"type": "Feature", "properties": {"norad_id": 18362, "name": "OSCAR 29", "group": "nnss", "lat": 40.351979938967, "lon": -99.66882584585132, "alt_km": 1083.2011314328274, "timestamp": "2025-12-20T05:41:50.299031+00:00", "meta": {"OBJECT_NAME": "OSCAR 29", "OBJECT_ID": "1987-080B", "EPOCH": "2025-12-19T12:58:39.035712", "MEAN_MOTION": 13.44449557, "ECCENTRICITY": 0.010432, "INCLINATION": 90.3752, "RA_OF_ASC_NODE": 79.9861, "ARG_OF_PERICENTER": 227.4328, "MEAN_ANOMALY": 143.48, "EPHEMERIS_TYPE": 0, "CLASSIFICATION_TYPE": "U", "NORAD_CAT_ID": 18362, "ELEMENT_SET_NO": 999, "REV_AT_EPOCH": 87601, "BSTAR": 0.00013403, "MEAN_MOTION_DOT": 8.8e-07, "MEAN_MOTION_DDOT": 0}, "tle": {"line1": "1 18362U 87080B   25353.54072958  .00000088  00000+0  13403-3 0  9990", "line2": "2 18362  90.3752  79.9861 0104320 227.4328 143.4800 13.44449557876014"}}, "geometry": {"type": "Point", "coordinates": [-99.66882584585132, 40.351979938967]}}, {"type": "Feature", "properties": {"norad_id": 19070, "name": "OSCAR 23", "group": "nnss", "lat": -8.165623262058858, "lon": -163.42100449067797, "alt_km": 1033.0660967993063, "timestamp": "2025-12-20T05:41:50.299041+00:00", "meta": {"OBJECT_NAME": "OSCAR 23", "OBJECT_ID": "1988-033A", "EPOCH": "2025-12-19T20:34:59.428992", "MEAN_MOTION": 13.27788361, "ECCENTRICITY": 0.01901144, "INCLINATION": 90.3205, "RA_OF_ASC_NODE": 16.6132, "ARG_OF_PERICENTER": 160.1584, "MEAN_ANOMALY": 12.6618, "EPHEMERIS_TYPE": 0, "CLASSIFICATION_TYPE": "U", "NORAD_CAT_ID": 19070, "ELEMENT_SET_NO": 999, "REV_AT_EPOCH": 82347, "BSTAR": 0.00019025891, "MEAN_MOTION_DOT": 1.04e-06, "MEAN_MOTION_DDOT": 0}, "tle": {"line1": "1 19070U 88033A   25353.85763228  .00000104  00000+0  19026-3 0  9993", "line2": "2 19070  90.3205  16.6132 0190114 160.1584  12.6618 13.27788361823472"}}, "geometry": {"type": "Point", "coordinates": [-163.42100449067797, -8.165623262058858]}}, {"type": "Feature", "properties": {"norad_id": 19071, "name": "OSCAR 32", "group": "nnss", "lat": -57.37568582419515, "lon": 17.259051861690175, "alt_km": 1291.9081702455705, "timestamp": "2025-12-20T05:41:50.299051+00:00", "meta": {"OBJECT_NAME": "OSCAR 32", "OBJECT_ID": "1988-033B", "EPOCH": "2025-12-19T23:05:10.906656", "MEAN_MOTION": 13.27955122, "ECCENTRICITY": 0.01889056, "INCLINATION": 90.321, "RA_OF_ASC_NODE": 16.7487, "ARG_OF_PERICENTER": 146.7765, "MEAN_ANOMALY": 278.9555, "EPHEMERIS_TYPE": 0, "CLASSIFICATION_TYPE": "U", "NORAD_CAT_ID": 19071, "ELEMENT_SET_NO": 999, "REV_AT_EPOCH": 82361, "BSTAR": 0.00013657065, "MEAN_MOTION_DOT": 7.8e-07, "MEAN_MOTION_DDOT": 0}, "tle": {"line1": "1 19071U 88033B   25353.96193179  .00000078  00000+0  13657-3 0  9992", "line2": "2 19071  90.3210  16.7487 0188905 146.7765 278.9555 13.27955122823613"}}, "geometry": {"type": "Point", "coordinates": [17.259051861690175, -57.37568582419515]}}, {"type": "Feature", "properties": {"norad_id": 19223, "name": "NOVA 2", "group": "nnss", "lat": 3.7238593114855987, "lon": 78.2640307034054, "alt_km": 1153.4526682918577, "timestamp": "2025-12-20T05:41:50.299062+00:00", "meta": {"OBJECT_NAME": "NOVA 2", "OBJECT_ID": "1988-052A", "EPOCH": "2025-12-19T06:21:05.310720", "MEAN_MOTION": 13.22936436, "ECCENTRICITY": 0.0030033, "INCLINATION": 89.987, "RA_OF_ASC_NODE": 78.2644, "ARG_OF_PERICENTER": 358.9404, "MEAN_ANOMALY": 54.7754, "EPHEMERIS_TYPE": 0, "CLASSIFICATION_TYPE": "U", "NORAD_CAT_ID": 19223, "ELEMENT_SET_NO": 999, "REV_AT_EPOCH": 81034, "BSTAR": 0.00011474, "MEAN_MOTION_DOT": 5.7e-07, "MEAN_MOTION_DDOT": 0}, "tle": {"line1": "1 19223U 88052A   25353.26464480  .00000057  00000+0  11474-3 0  9993", "line2": "2 19223  89.9870  78.2644 0030033 358.9404  54.7754 13.22936436810340"}}, "geometry": {"type": "Point", "coordinates": [78.2640307034054, 3.7238593114855987]}}, {"type": "Feature", "properties": {"norad_id": 19419, "name": "OSCAR 25", "group": "nnss", "lat": -71.19085452557886, "lon": -159.8311663931859, "alt_km": 1043.5870284105558, "timestamp": "2025-12-20T05:41:50.299072+00:00", "meta": {"OBJECT_NAME": "OSCAR 25", "OBJECT_ID": "1988-074A", "EPOCH": "2025-12-19T20:22:23.213856", "MEAN_MOTION": 13.42624628, "ECCENTRICITY": 0.0094825, "INCLINATION": 90.034, "RA_OF_ASC_NODE": 20.2674, "ARG_OF_PERICENTER": 225.2515, "MEAN_ANOMALY": 308.6842, "EPHEMERIS_TYPE": 0, "CLASSIFICATION_TYPE": "U", "NORAD_CAT_ID": 19419, "ELEMENT_SET_NO": 999, "REV_AT_EPOCH": 82735, "BSTAR": 0.0001467001, "MEAN_MOTION_DOT": 9.4e-07, "MEAN_MOTION_DDOT": 0}, "tle": {"line1": "1 19419U 88074A   25353.84887979  .00000094  00000+0  14670-3 0  9992", "line2": "2 19419  90.0340  20.2674 0094825 225.2515 308.6842 13.42624628827357"}}, "geometry": {"type": "Point", "coordinates": [-159.8311663931859, -71.19085452557886]}}, {"type": "Feature", "properties": {"norad_id": 19420, "name": "OSCAR 31", "group": "nnss", "lat": 47.60709373324495, "lon": -159.34103531991016, "alt_km": 1089.9550398669453, "timestamp": "2025-12-20T05:41:50.299083+00:00", "meta": {"OBJECT_NAME": "OSCAR 31", "OBJECT_ID": "1988-074B", "EPOCH": "2025-12-19T04:19:51.591936", "MEAN_MOTION": 13.42585711, "ECCENTRICITY": 0.0093141, "INCLINATION": 90.0356, "RA_OF_ASC_NODE": 20.6162, "ARG_OF_PERICENTER": 221.3224, "MEAN_ANOMALY": 206.6129, "EPHEMERIS_TYPE": 0, "CLASSIFICATION_TYPE": "U", "NORAD_CAT_ID": 19420, "ELEMENT_SET_NO": 999, "REV_AT_EPOCH": 82737, "BSTAR": 0.00015294, "MEAN_MOTION_DOT": 9.7e-07, "MEAN_MOTION_DDOT": 0}, "tle": {"line1": "1 19420U 88074B   25353.18045824  .00000097  00000+0  15294-3 0  9992", "line2": "2 19420  90.0356  20.6162 0093141 221.3224 206.6129 13.42585711827372"}}, "geometry": {"type": "Point", "coordinates": [-159.34103531991016, 47.60709373324495]}}]}